[
    {
        "Altitude(m)": 610405.3486183371,
        "Argument of Periapsis(deg)": 0.0,
        "Eccentricity": 0.0,
        "Inclination(deg)": 60.0,
        "Latitude(deg)": 52.11134216276395,
        "Longitude(deg)": 112.47746402815841,
        "Mean Anomaly(deg)": 114.5455,
        "RAAN(deg)": 80.0,
        "Satellite Name": "Test1 359",
        "Satellite Number": 359,
        "Semi-Major Axis(m)": 6980739.136638005,
        "Time(s)": 0
    },
    {
        "Altitude(m)": 610321.9214987414,
        "Argument of Periapsis(deg)": 0.00010418945913296404,
        "Eccentricity": 0.0,
        "Inclination(deg)": 60.0,
        "Latitude(deg)": 51.74605665433028,
        "Longitude(deg)": 113.24635844529129,
        "Mean Anomaly(deg)": 115.16560614546184,
        "RAAN(deg)": 79.99957995086025,
        "Satellite Name": "Test1 359",
        "Satellite Number": 359,
        "Semi-Major Axis(m)": 6980739.136638005,
        "Time(s)": 10
    }
]